start=new Date('2022-05-20T00:00:00.000Z').valueOf();
sats=[{"EPHEMERIS_TYPE":"0","OBJECT_ID":"2022-029N","NORAD_CAT_ID":"52100","SITE":"AFETR","TLE_LINE1":"1 52100U 22029N   22140.25001157 -.00722002  00000-0 -40871-1 0  9999","TLE_LINE2":"2 52100  53.2178 206.6254 0001463  67.6433 100.3700 15.15139594 10896","MEAN_MOTION_DOT":"-0.00722002","MEAN_ANOMALY":"100.3700","PERIOD":"95.041","OBJECT_NAME":"STARLINK-3702","REV_AT_EPOCH":"1089","BSTAR":"-0.04087100000000","ARG_OF_PERICENTER":"67.6433","REF_FRAME":"TEME","CLASSIFICATION_TYPE":"U","PERIAPSIS":"519.548","DECAY_DATE":null,"RA_OF_ASC_NODE":"206.6254","LAUNCH_DATE":"2022-03-19","APOAPSIS":"521.566","OBJECT_TYPE":"PAYLOAD","COUNTRY_CODE":"US","MEAN_MOTION_DDOT":"0.0000000000000","ELEMENT_SET_NO":"999","RCS_SIZE":"LARGE","CENTER_NAME":"EARTH","TIME_SYSTEM":"UTC","GP_ID":"203997915","ECCENTRICITY":"0.00014630","MEAN_ELEMENT_THEORY":"SGP4","SEMIMAJOR_AXIS":"6898.692","MEAN_MOTION":"15.15139594","FILE":"3454127","INCLINATION":"53.2178","EPOCH":"2022-05-20T06:00:00.999648"},{"MEAN_MOTION_DOT":"-0.00723545","PERIOD":"94.993","MEAN_ANOMALY":"117.8796","EPHEMERIS_TYPE":"0","SITE":"AFETR","NORAD_CAT_ID":"52101","TLE_LINE1":"1 52101U 22029P   22139.91667824 -.00723545  00000-0 -40090-1 0  9996","TLE_LINE2":"2 52101  53.2175 208.1347 0001468  66.6673 117.8796 15.15895717 10832","OBJECT_ID":"2022-029P","REF_FRAME":"TEME","CLASSIFICATION_TYPE":"U","PERIAPSIS":"517.250","RA_OF_ASC_NODE":"208.1347","DECAY_DATE":null,"REV_AT_EPOCH":"1083","OBJECT_NAME":"STARLINK-3703","BSTAR":"-0.04009000000000","ARG_OF_PERICENTER":"66.6673","COUNTRY_CODE":"US","OBJECT_TYPE":"PAYLOAD","MEAN_MOTION_DDOT":"0.0000000000000","LAUNCH_DATE":"2022-03-19","APOAPSIS":"519.275","GP_ID":"203951884","ECCENTRICITY":"0.00014680","FILE":"3453238","EPOCH":"2022-05-19T22:00:00.999936","INCLINATION":"53.2175","SEMIMAJOR_AXIS":"6896.398","MEAN_ELEMENT_THEORY":"SGP4","MEAN_MOTION":"15.15895717","RCS_SIZE":"LARGE","ELEMENT_SET_NO":"999","CENTER_NAME":"EARTH","TIME_SYSTEM":"UTC"},{"MEAN_MOTION_DDOT":"0.0000000000000","OBJECT_TYPE":"PAYLOAD","COUNTRY_CODE":"US","LAUNCH_DATE":"2022-03-19","APOAPSIS":"437.470","MEAN_MOTION":"15.43302185","SEMIMAJOR_AXIS":"6814.508","MEAN_ELEMENT_THEORY":"SGP4","INCLINATION":"53.2175","EPOCH":"2022-05-19T22:00:00.999936","FILE":"3453812","ECCENTRICITY":"0.00016100","GP_ID":"203991005","TIME_SYSTEM":"UTC","CENTER_NAME":"EARTH","ELEMENT_SET_NO":"999","RCS_SIZE":"LARGE","MEAN_ANOMALY":"218.2198","PERIOD":"93.306","MEAN_MOTION_DOT":"-0.00585352","OBJECT_ID":"2022-029Q","TLE_LINE1":"1 52102U 22029Q   22139.91667824 -.00585352  00000-0 -13948-1 0  9991","TLE_LINE2":"2 52102  53.2175 201.3379 0001610  44.5584 218.2198 15.43302185  1305","SITE":"AFETR","NORAD_CAT_ID":"52102","EPHEMERIS_TYPE":"0","DECAY_DATE":null,"RA_OF_ASC_NODE":"201.3379","CLASSIFICATION_TYPE":"U","PERIAPSIS":"435.276","REF_FRAME":"TEME","ARG_OF_PERICENTER":"44.5584","BSTAR":"-0.01394800000000","OBJECT_NAME":"STARLINK-3709","REV_AT_EPOCH":"130"},{"OBJECT_ID":"2022-029R","TLE_LINE2":"2 52103  53.2175 201.1036 0001565  44.7103 239.0567 15.44458868 10922","TLE_LINE1":"1 52103U 22029R   22139.91667824 -.00722783  00000-0 -16620-1 0  9993","SITE":"AFETR","NORAD_CAT_ID":"52103","EPHEMERIS_TYPE":"0","MEAN_ANOMALY":"239.0567","PERIOD":"93.237","MEAN_MOTION_DOT":"-0.00722783","BSTAR":"-0.01662000000000","ARG_OF_PERICENTER":"44.7103","OBJECT_NAME":"STARLINK-3705","REV_AT_EPOCH":"1092","DECAY_DATE":null,"RA_OF_ASC_NODE":"201.1036","PERIAPSIS":"431.905","CLASSIFICATION_TYPE":"U","REF_FRAME":"TEME","LAUNCH_DATE":"2022-03-19","APOAPSIS":"434.036","MEAN_MOTION_DDOT":"0.0000000000000","OBJECT_TYPE":"PAYLOAD","COUNTRY_CODE":"US","TIME_SYSTEM":"UTC","CENTER_NAME":"EARTH","ELEMENT_SET_NO":"999","RCS_SIZE":"LARGE","MEAN_MOTION":"15.44458868","MEAN_ELEMENT_THEORY":"SGP4","SEMIMAJOR_AXIS":"6811.106","INCLINATION":"53.2175","EPOCH":"2022-05-19T22:00:00.999936","FILE":"3453246","ECCENTRICITY":"0.00015650","GP_ID":"203951938"},{"BSTAR":"-0.01669800000000","ARG_OF_PERICENTER":"38.0515","REV_AT_EPOCH":"1098","OBJECT_NAME":"STARLINK-3706","RA_OF_ASC_NODE":"199.5421","DECAY_DATE":null,"PERIAPSIS":"432.380","CLASSIFICATION_TYPE":"U","REF_FRAME":"TEME","TLE_LINE1":"1 52105U 22029T   22140.25001157 -.00722095  00000-0 -16698-1 0  9996","TLE_LINE2":"2 52105  53.2176 199.5421 0001589  38.0515 306.1120 15.44291702 10981","SITE":"AFETR","NORAD_CAT_ID":"52105","OBJECT_ID":"2022-029T","EPHEMERIS_TYPE":"0","PERIOD":"93.247","MEAN_ANOMALY":"306.1120","MEAN_MOTION_DOT":"-0.00722095","TIME_SYSTEM":"UTC","CENTER_NAME":"EARTH","RCS_SIZE":"LARGE","ELEMENT_SET_NO":"999","EPOCH":"2022-05-20T06:00:00.999648","INCLINATION":"53.2176","FILE":"3454127","MEAN_MOTION":"15.44291702","MEAN_ELEMENT_THEORY":"SGP4","SEMIMAJOR_AXIS":"6811.597","ECCENTRICITY":"0.00015890","GP_ID":"203997922","LAUNCH_DATE":"2022-03-19","APOAPSIS":"434.544","MEAN_MOTION_DDOT":"0.0000000000000","COUNTRY_CODE":"US","OBJECT_TYPE":"PAYLOAD"},{"ELEMENT_SET_NO":"999","RCS_SIZE":"LARGE","TIME_SYSTEM":"UTC","CENTER_NAME":"EARTH","ECCENTRICITY":"0.00014490","GP_ID":"203952343","MEAN_MOTION":"15.16024184","MEAN_ELEMENT_THEORY":"SGP4","SEMIMAJOR_AXIS":"6896.008","INCLINATION":"53.2175","EPOCH":"2022-05-19T22:00:00.999936","FILE":"3453255","LAUNCH_DATE":"2022-03-19","APOAPSIS":"518.872","OBJECT_TYPE":"PAYLOAD","COUNTRY_CODE":"US","MEAN_MOTION_DDOT":"0.0000000000000","OBJECT_NAME":"STARLINK-3670","REV_AT_EPOCH":"1083","BSTAR":"-0.03996300000000","ARG_OF_PERICENTER":"69.7511","CLASSIFICATION_TYPE":"U","PERIAPSIS":"516.874","REF_FRAME":"TEME","DECAY_DATE":null,"RA_OF_ASC_NODE":"208.1343","EPHEMERIS_TYPE":"0","OBJECT_ID":"2022-029U","TLE_LINE1":"1 52106U 22029U   22139.91667824 -.00723882  00000-0 -39963-1 0  9992","TLE_LINE2":"2 52106  53.2175 208.1343 0001449  69.7511 132.6473 15.16024184 10837","NORAD_CAT_ID":"52106","SITE":"AFETR","MEAN_MOTION_DOT":"-0.00723882","MEAN_ANOMALY":"132.6473","PERIOD":"94.985"},{"BSTAR":"-0.01640700000000","ARG_OF_PERICENTER":"42.3073","REV_AT_EPOCH":"1096","OBJECT_NAME":"STARLINK-3658","RA_OF_ASC_NODE":"199.9504","DECAY_DATE":null,"REF_FRAME":"TEME","PERIAPSIS":"431.193","CLASSIFICATION_TYPE":"U","SITE":"AFETR","NORAD_CAT_ID":"52107","TLE_LINE1":"1 52107U 22029V   22140.16667824 -.00718827  00000-0 -16407-1 0  9993","TLE_LINE2":"2 52107  53.2174 199.9504 0001736  42.3073 203.0150 15.44661334 10966","OBJECT_ID":"2022-029V","EPHEMERIS_TYPE":"0","PERIOD":"93.224","MEAN_ANOMALY":"203.0150","MEAN_MOTION_DOT":"-0.00718827","CENTER_NAME":"EARTH","TIME_SYSTEM":"UTC","RCS_SIZE":"LARGE","ELEMENT_SET_NO":"999","FILE":"3453901","EPOCH":"2022-05-20T04:00:00.999936","INCLINATION":"53.2174","SEMIMAJOR_AXIS":"6810.510","MEAN_ELEMENT_THEORY":"SGP4","MEAN_MOTION":"15.44661334","GP_ID":"203992906","ECCENTRICITY":"0.00017360","LAUNCH_DATE":"2022-03-19","APOAPSIS":"433.558","MEAN_MOTION_DDOT":"0.0000000000000","COUNTRY_CODE":"US","OBJECT_TYPE":"PAYLOAD"},{"REV_AT_EPOCH":"1098","OBJECT_NAME":"STARLINK-3698","ARG_OF_PERICENTER":"43.9450","BSTAR":"-0.01677900000000","CLASSIFICATION_TYPE":"U","PERIAPSIS":"432.861","REF_FRAME":"TEME","RA_OF_ASC_NODE":"199.5339","DECAY_DATE":null,"EPHEMERIS_TYPE":"0","TLE_LINE1":"1 52108U 22029W   22140.25001157 -.00722015  00000-0 -16779-1 0  9991","TLE_LINE2":"2 52108  53.2176 199.5339 0001507  43.9450 297.4604 15.44147083 10986","SITE":"AFETR","NORAD_CAT_ID":"52108","OBJECT_ID":"2022-029W","MEAN_MOTION_DOT":"-0.00722015","PERIOD":"93.255","MEAN_ANOMALY":"297.4604","RCS_SIZE":"LARGE","ELEMENT_SET_NO":"999","TIME_SYSTEM":"UTC","CENTER_NAME":"EARTH","ECCENTRICITY":"0.00015070","GP_ID":"203997820","INCLINATION":"53.2176","EPOCH":"2022-05-20T06:00:00.999648","FILE":"3454125","MEAN_MOTION":"15.44147083","SEMIMAJOR_AXIS":"6812.022","MEAN_ELEMENT_THEORY":"SGP4","APOAPSIS":"434.914","LAUNCH_DATE":"2022-03-19","COUNTRY_CODE":"US","OBJECT_TYPE":"PAYLOAD","MEAN_MOTION_DDOT":"0.0000000000000"},{"EPHEMERIS_TYPE":"0","TLE_LINE1":"1 52110U 22029Y   22140.16667824 -.00718878  00000-0 -16520-1 0  9999","TLE_LINE2":"2 52110  53.2174 199.9389 0001757  41.1011 200.9054 15.44462992 10961","SITE":"AFETR","NORAD_CAT_ID":"52110","OBJECT_ID":"2022-029Y","MEAN_MOTION_DOT":"-0.00718878","PERIOD":"93.236","MEAN_ANOMALY":"200.9054","REV_AT_EPOCH":"1096","OBJECT_NAME":"STARLINK-3687","BSTAR":"-0.01652000000000","ARG_OF_PERICENTER":"41.1011","CLASSIFICATION_TYPE":"U","PERIAPSIS":"431.762","REF_FRAME":"TEME","RA_OF_ASC_NODE":"199.9389","DECAY_DATE":null,"LAUNCH_DATE":"2022-03-19","APOAPSIS":"434.155","COUNTRY_CODE":"US","OBJECT_TYPE":"PAYLOAD","MEAN_MOTION_DDOT":"0.0000000000000","RCS_SIZE":"LARGE","ELEMENT_SET_NO":"999","TIME_SYSTEM":"UTC","CENTER_NAME":"EARTH","ECCENTRICITY":"0.00017570","GP_ID":"203992942","INCLINATION":"53.2174","EPOCH":"2022-05-20T04:00:00.999936","FILE":"3453903","MEAN_MOTION":"15.44462992","MEAN_ELEMENT_THEORY":"SGP4","SEMIMAJOR_AXIS":"6811.093"},{"RA_OF_ASC_NODE":"201.1722","DECAY_DATE":null,"REF_FRAME":"TEME","PERIAPSIS":"428.413","CLASSIFICATION_TYPE":"U","BSTAR":"-0.01597300000000","ARG_OF_PERICENTER":"39.6165","REV_AT_EPOCH":"1092","OBJECT_NAME":"STARLINK-3708","PERIOD":"93.165","MEAN_ANOMALY":"263.7420","MEAN_MOTION_DOT":"-0.00723308","SITE":"AFETR","NORAD_CAT_ID":"52111","TLE_LINE1":"1 52111U 22029Z   22139.91667824 -.00723308  00000-0 -15973-1 0  9996","TLE_LINE2":"2 52111  53.2175 201.1722 0001610  39.6165 263.7420 15.45636992 10924","OBJECT_ID":"2022-029Z","EPHEMERIS_TYPE":"0","FILE":"3453256","EPOCH":"2022-05-19T22:00:00.999936","INCLINATION":"53.2175","SEMIMAJOR_AXIS":"6807.644","MEAN_ELEMENT_THEORY":"SGP4","MEAN_MOTION":"15.45636992","GP_ID":"203952849","ECCENTRICITY":"0.00016100","CENTER_NAME":"EARTH","TIME_SYSTEM":"UTC","RCS_SIZE":"LARGE","ELEMENT_SET_NO":"999","MEAN_MOTION_DDOT":"0.0000000000000","COUNTRY_CODE":"US","OBJECT_TYPE":"PAYLOAD","LAUNCH_DATE":"2022-03-19","APOAPSIS":"430.605"}];
